{
    "links": {
        "self": "http://www.neowsapp.com/rest/v1/neo/3599252?api_key=iIulBulltgU6a56xZRHN4H3l9WmuAYTsLGpBGhQ2"
    },
    "id": "3599252",
    "neo_reference_id": "3599252",
    "name": "(2012 CO36)",
    "designation": "2012 CO36",
    "nasa_jpl_url": "http://ssd.jpl.nasa.gov/sbdb.cgi?sstr=3599252",
    "absolute_magnitude_h": 25.6,
    "estimated_diameter": {
        "kilometers": {
            "estimated_diameter_min": 0.0201629919,
            "estimated_diameter_max": 0.0450858206
        },
        "meters": {
            "estimated_diameter_min": 20.1629919443,
            "estimated_diameter_max": 45.0858206172
        },
        "miles": {
            "estimated_diameter_min": 0.0125286985,
            "estimated_diameter_max": 0.0280150214
        },
        "feet": {
            "estimated_diameter_min": 66.1515504905,
            "estimated_diameter_max": 147.9193637137
        }
    },
    "is_potentially_hazardous_asteroid": false,
    "close_approach_data": [
        {
            "close_approach_date": "2012-02-25",
            "close_approach_date_full": "2012-Feb-25 13:12",
            "epoch_date_close_approach": 1330175520000,
            "relative_velocity": {
                "kilometers_per_second": "10.4452426637",
                "kilometers_per_hour": "37602.8735892062",
                "miles_per_hour": "23364.9633143598"
            },
            "miss_distance": {
                "astronomical": "0.0666738787",
                "lunar": "25.9361388143",
                "kilometers": "9974270.238158369",
                "miles": "6197724.1337047322"
            },
            "orbiting_body": "Earth"
        },
        {
            "close_approach_date": "2013-09-06",
            "close_approach_date_full": "2013-Sep-06 21:04",
            "epoch_date_close_approach": 1378501440000,
            "relative_velocity": {
                "kilometers_per_second": "16.9062195603",
                "kilometers_per_hour": "60862.390417192",
                "miles_per_hour": "37817.5225345046"
            },
            "miss_distance": {
                "astronomical": "0.2209694863",
                "lunar": "85.9571301707",
                "kilometers": "33056564.485474181",
                "miles": "20540396.7004224578"
            },
            "orbiting_body": "Earth"
        },
        {
            "close_approach_date": "2127-02-18",
            "close_approach_date_full": "2127-Feb-18 18:47",
            "epoch_date_close_approach": 4958650020000,
            "relative_velocity": {
                "kilometers_per_second": "17.2316391698",
                "kilometers_per_hour": "62033.9010114521",
                "miles_per_hour": "38545.4536590325"
            },
            "miss_distance": {
                "astronomical": "0.2322299432",
                "lunar": "90.3374479048",
                "kilometers": "34741104.852940984",
                "miles": "21587121.5474902192"
            },
            "orbiting_body": "Earth"
        }
    ],
    "orbital_data": {
        "orbit_id": "5",
        "orbit_determination_date": "2017-04-06 08:54:52",
        "first_observation_date": "2012-02-14",
        "last_observation_date": "2012-02-15",
        "data_arc_in_days": 1,
        "observations_used": 7,
        "orbit_uncertainty": "9",
        "minimum_orbit_intersection": ".0441946",
        "jupiter_tisserand_invariant": "5.541",
        "epoch_osculation": "2455972.5",
        "eccentricity": ".3002728166413084",
        "semi_major_axis": "1.111923050441613",
        "inclination": "12.44650812661749",
        "ascending_node_longitude": "322.6585500188588",
        "orbital_period": "428.2629723697631",
        "perihelion_distance": ".7780427841971145",
        "perihelion_argument": "284.7771664251176",
        "aphelion_distance": "1.445803316686112",
        "perihelion_time": "2456052.781049782385",
        "mean_anomaly": "292.5153473770194",
        "mean_motion": ".8406050095995115",
        "equinox": "J2000",
        "orbit_class": {
            "orbit_class_type": "APO",
            "orbit_class_description": "Near-Earth asteroid orbits which cross the Earth’s orbit similar to that of 1862 Apollo",
            "orbit_class_range": "a (semi-major axis) > 1.0 AU; q (perihelion) < 1.017 AU"
        }
    },
    "is_sentry_object": false
}